     3.04           N: GNSS NAV DATA    R: GLONASS          RINEX VERSION / TYPE
cnvtToRINEX 3.14.0  convertToRINEX OPR  20250615 162732 UTC PGM / RUN BY / DATE 
----------------------------------------------------------- COMMENT             
GLUT -0.232830643654D-08 0.000000000000D+00 233472 2371     TIME SYSTEM CORR    
    18                                                      LEAP SECONDS        
                                                            END OF HEADER       
R18 2025 06 15 11 45 00 0.206975266337D-03 0.181898940355D-11 0.422100000000D+05
     0.898317480469D+04 0.127384376526D+01 0.186264514923D-08 0.000000000000D+00
    -0.579138671875D+04 0.290630149841D+01 0.186264514923D-08-0.300000000000D+01
     0.231685161133D+05 0.236527442932D+00-0.931322574615D-09 0.000000000000D+00
R 1 2025 06 15 11 45 00 0.128769315779D-03 0.909494701773D-12 0.422100000000D+05
    -0.363885839844D+04-0.313512229919D+01 0.279396772385D-08 0.000000000000D+00
     0.105879736328D+05-0.155983924866D+00 0.931322574615D-09 0.100000000000D+01
     0.229208442383D+05-0.423959732056D+00-0.931322574615D-09 0.000000000000D+00
R 3 2025 06 15 11 45 00 0.124268233776D-03 0.909494701773D-12 0.422100000000D+05
     0.251532988281D+05-0.351128578186D+00 0.186264514923D-08 0.000000000000D+00
     0.349088671875D+04-0.229456901550D+00 0.279396772385D-08 0.500000000000D+01
     0.275215234375D+04 0.355563545227D+01 0.186264514923D-08 0.000000000000D+00
R 2 2025 06 15 11 45 00-0.304803252220D-04 0.909494701773D-12 0.422100000000D+05
     0.143670327148D+05-0.251081848145D+01 0.279396772385D-08 0.000000000000D+00
     0.100495170898D+05-0.376963615417D+00 0.279396772385D-08-0.400000000000D+01
     0.186001342773D+05 0.214238834381D+01 0.000000000000D+00 0.000000000000D+00
R17 2025 06 15 11 45 00 0.200936570764D-03 0.272848410532D-11 0.422100000000D+05
     0.141768125000D+05 0.116563892365D+01 0.279396772385D-08 0.000000000000D+00
     0.104767744141D+05 0.224324893951D+01 0.279396772385D-08 0.400000000000D+01
     0.184180278320D+05-0.217766284943D+01 0.000000000000D+00 0.000000000000D+00
R24 2025 06 15 11 45 00-0.108832493424D-03-0.181898940355D-11 0.415200000000D+05
     0.118339208984D+05 0.296051025391D+00 0.279396772385D-08 0.000000000000D+00
     0.224325366211D+05 0.256805419922D+00 0.186264514923D-08 0.200000000000D+01
     0.262287939453D+04-0.354841327667D+01 0.186264514923D-08 0.000000000000D+00
R 2 2025 06 15 12 15 00-0.304784625769D-04 0.909494701773D-12 0.432000000000D+05
     0.940307470703D+04-0.295964431763D+01 0.279396772385D-08 0.000000000000D+00
     0.970808496094D+04 0.191793441772D-01 0.186264514923D-08-0.400000000000D+01
     0.216923217773D+05 0.127116870880D+01 0.000000000000D+00 0.000000000000D+00
R17 2025 06 15 12 15 00 0.200938433409D-03 0.272848410532D-11 0.432000000000D+05
     0.162983227539D+05 0.114778709412D+01 0.372529029846D-08 0.000000000000D+00
     0.138796962891D+05 0.151932144165D+01 0.186264514923D-08 0.400000000000D+01
     0.138356953125D+05-0.288077831268D+01 0.931322574615D-09 0.000000000000D+00
R18 2025 06 15 12 15 00 0.206978991628D-03 0.181898940355D-11 0.432000000000D+05
     0.116493657227D+05 0.166139221191D+01 0.279396772385D-08 0.000000000000D+00
    -0.771379394531D+03 0.262629127502D+01 0.186264514923D-08-0.300000000000D+01
     0.226942480469D+05-0.759957313538D+00 0.000000000000D+00 0.000000000000D+00
R 3 2025 06 15 12 15 00 0.124270096421D-03 0.909494701773D-12 0.432000000000D+05
     0.237227788086D+05-0.122582435608D+01 0.279396772385D-08 0.000000000000D+00
     0.313000341797D+04-0.131090164185D+00 0.279396772385D-08 0.500000000000D+01
     0.896404492188D+04 0.330189895630D+01 0.931322574615D-09 0.000000000000D+00
R 1 2025 06 15 12 15 00 0.128766521811D-03 0.909494701773D-12 0.432000000000D+05
    -0.911638037109D+04-0.290081787109D+01 0.186264514923D-08 0.000000000000D+00
     0.107156435547D+05 0.286857604980D+00 0.000000000000D+00 0.100000000000D+01
     0.212818500977D+05-0.138528251648D+01-0.931322574615D-09 0.000000000000D+00
